{
    "links": {
        "self": "http://www.neowsapp.com/rest/v1/neo/3670143?api_key=iIulBulltgU6a56xZRHN4H3l9WmuAYTsLGpBGhQ2"
    },
    "id": "3670143",
    "neo_reference_id": "3670143",
    "name": "(2014 HP178)",
    "designation": "2014 HP178",
    "nasa_jpl_url": "http://ssd.jpl.nasa.gov/sbdb.cgi?sstr=3670143",
    "absolute_magnitude_h": 21.6,
    "estimated_diameter": {
        "kilometers": {
            "estimated_diameter_min": 0.1272198785,
            "estimated_diameter_max": 0.2844722965
        },
        "meters": {
            "estimated_diameter_min": 127.2198785394,
            "estimated_diameter_max": 284.4722965033
        },
        "miles": {
            "estimated_diameter_min": 0.0790507431,
            "estimated_diameter_max": 0.1767628354
        },
        "feet": {
            "estimated_diameter_min": 417.3880663071,
            "estimated_diameter_max": 933.3080892598
        }
    },
    "is_potentially_hazardous_asteroid": false,
    "close_approach_data": [
        {
            "close_approach_date": "2014-04-22",
            "close_approach_date_full": "2014-Apr-22 14:34",
            "epoch_date_close_approach": 1398177240000,
            "relative_velocity": {
                "kilometers_per_second": "2.1642021378",
                "kilometers_per_hour": "7791.1276959256",
                "miles_per_hour": "4841.1037619489"
            },
            "miss_distance": {
                "astronomical": "0.3082176356",
                "lunar": "119.8966602484",
                "kilometers": "46108701.782196172",
                "miles": "28650618.7406122936"
            },
            "orbiting_body": "Earth"
        }
    ],
    "orbital_data": {
        "orbit_id": "8",
        "orbit_determination_date": "2017-04-06 08:41:14",
        "first_observation_date": "2014-04-28",
        "last_observation_date": "2014-06-02",
        "data_arc_in_days": 35,
        "observations_used": 28,
        "orbit_uncertainty": "6",
        "minimum_orbit_intersection": ".291902",
        "jupiter_tisserand_invariant": "3.765",
        "epoch_osculation": "2459000.5",
        "eccentricity": ".3525908220358248",
        "semi_major_axis": "1.991951296802612",
        "inclination": "5.397216977688533",
        "ascending_node_longitude": "79.81942647599779",
        "orbital_period": "1026.872445600218",
        "perihelion_distance": "1.289607551607652",
        "perihelion_argument": "134.4191933623905",
        "aphelion_distance": "2.694295041997572",
        "perihelion_time": "2458831.453026378220",
        "mean_anomaly": "59.26433294085442",
        "mean_motion": ".350579082672314",
        "equinox": "J2000",
        "orbit_class": {
            "orbit_class_type": "AMO",
            "orbit_class_description": "Near-Earth asteroid orbits similar to that of 1221 Amor",
            "orbit_class_range": "1.017 AU < q (perihelion) < 1.3 AU"
        }
    },
    "is_sentry_object": false
}